[{"OBJECT_NAME":"STARLINK-32671","OBJECT_ID":"2024-229T","EPOCH":"2026-03-09T22:24:25.866144","MEAN_MOTION":15.27556342,"ECCENTRICITY":0.00027458,"INCLINATION":43.0043,"RA_OF_ASC_NODE":269.7602,"ARG_OF_PERICENTER":244.2895,"MEAN_ANOMALY":115.7673,"EPHEMERIS_TYPE":0,"CLASSIFICATION_TYPE":"U","NORAD_CAT_ID":62209,"ELEMENT_SET_NO":999,"REV_AT_EPOCH":7059,"BSTAR":0.00092221139,"MEAN_MOTION_DOT":0.00025185,"MEAN_MOTION_DDOT":0},{"OBJECT_NAME":"REAL","OBJECT_ID":"2025-154G","EPOCH":"2026-03-09T17:20:09.670560","MEAN_MOTION":15.28408058,"ECCENTRICITY":0.00018528,"INCLINATION":97.4133,"RA_OF_ASC_NODE":137.2581,"ARG_OF_PERICENTER":118.5876,"MEAN_ANOMALY":241.555,"EPHEMERIS_TYPE":0,"CLASSIFICATION_TYPE":"U","NORAD_CAT_ID":64875,"ELEMENT_SET_NO":999,"REV_AT_EPOCH":3483,"BSTAR":0.0008290401,"MEAN_MOTION_DOT":0.00022901,"MEAN_MOTION_DDOT":0}]
